COSMOS 2251 DEB         
1 34056U 93036JT  26063.07179764  .00003873  00000+0  16538-2 0  9992
2 34056  74.0587 290.8733 0124832 319.6844 161.1494 14.21236090875664
COSMOS 2251 DEB         
1 34058U 93036JV  26062.41870787  .00000727  00000+0  67485-3 0  9997
2 34058  73.9328  47.3306 0376607  26.9217  88.6861 13.56183108842369
COSMOS 2251 DEB         
1 34059U 93036JW  26063.03772784  .00004316  00000+0  10386-2 0  9990
2 34059  74.0393  32.8297 0015220  92.8645 343.2037 14.53537897896405
COSMOS 2251 DEB         
1 34061U 93036JY  26063.12868369  .00001053  00000+0  33814-3 0  9995
2 34061  74.0377 112.9273 0020052 179.3185 211.5773 14.40556811893520
COSMOS 2251 DEB         
1 34062U 93036JZ  26063.17321762  .00028845  00000+0  34955-2 0  9996
2 34062  74.0301 337.4720 0068375  35.1447 126.0117 14.81818780898000
COSMOS 2251 DEB         
1 34064U 93036KB  26063.15708939  .00001676  00000+0  51038-3 0  9996
2 34064  74.0308 119.7890 0021207 176.0972 215.1892 14.42665934893169
COSMOS 2251 DEB         
1 34065U 93036KC  26063.13165963  .00000526  00000+0  18172-3 0  9994
2 34065  74.0340 108.1927 0016763 195.7696 230.7238 14.38159369893758
COSMOS 2251 DEB         
1 34070U 93036KH  26063.18016711  .00022990  00000+0  30246-2 0  9995
2 34070  74.0017 315.8744 0016316  53.5763 103.4326 14.80018000898144
COSMOS 2251 DEB         
1 34114U 93036KK  26062.95227977  .00014513  00000+0  31005-2 0  9992
2 34114  74.0556 249.7288 0045357 226.7977 285.7473 14.58199831889848
COSMOS 2251 DEB         
1 34115U 93036KL  26063.06290394  .00011462  00000+0  14667-2 0  9994
2 34115  74.0038  81.4023 0032691 247.4897 112.2818 14.81034828906151
COSMOS 2251 DEB         
1 34116U 93036KM  26062.86505098  .00004991  00000+0  11991-2 0  9998
2 34116  74.0421  29.6696 0008754  90.1677 317.2854 14.53607134896655
COSMOS 2251 DEB         
1 34117U 93036KN  26063.07032656  .00003468  00000+0  10790-2 0  9992
2 34117  74.0400 193.5166 0057190 251.9487 107.5432 14.40405987892948
COSMOS 2251 DEB         
1 34118U 93036KP  26063.12858697  .00033108  00000+0  27042-2 0  9992
2 34118  73.9487  84.1285 0062188 256.3524 170.8325 14.97723999903937
COSMOS 2251 DEB         
1 34120U 93036KR  26063.11245631  .00000578  00000+0  36217-3 0  9992
2 34120  73.9898  75.2515 0184602 245.5185 191.1283 13.98778841871188
COSMOS 2251 DEB         
1 34121U 93036KS  26063.18542810  .00002023  00000+0  12618-2 0  9994
2 34121  73.9927 317.5559 0239131 145.7899  12.1425 13.92268666862580
COSMOS 2251 DEB         
1 34122U 93036KT  26063.14663439  .00007076  00000+0  12224-2 0  9998
2 34122  74.0377 321.8587 0083742 198.7870 312.1660 14.66282409898770
COSMOS 2251 DEB         
1 34127U 93036KY  26062.98422145  .00004612  00000+0  15997-2 0  9994
2 34127  74.1755 256.9413 0112527  73.2341  76.8353 14.32328570879344
COSMOS 2251 DEB         
1 34128U 93036KZ  26063.16852405  .00051528  00000+0  33534-2 0  9997
2 34128  73.9956 129.8542 0028249 237.7577 153.1820 15.07375368903910
COSMOS 2251 DEB         
1 34129U 93036LA  26062.71533631  .00014697  00000+0  20456-2 0  9990
2 34129  74.0354 180.8686 0034719 247.1880 112.5626 14.77395132624934
COSMOS 2251 DEB         
1 34136U 93036LH  26062.97810836  .00004030  00000+0  49575-3 0  9995
2 34136  74.0172 242.3278 0085880 342.8367 174.2963 14.80741253912122
COSMOS 2251 DEB         
1 34139U 93036LL  26063.05528632  .00006913  00000+0  14136-2 0  9994
2 34139  74.0286  98.8922 0038964 158.0235 224.7770 14.60526428893367
COSMOS 2251 DEB         
1 34141U 93036LN  26062.92209398  .00009001  00000+0  22726-2 0  9992
2 34141  74.0079 236.2014 0049471 302.6617 208.4342 14.50407888888709
COSMOS 2251 DEB         
1 34270U 93036LQ  26063.19611370  .00005765  00000+0  10422-2 0  9995
2 34270  74.0120 149.5884 0051188 281.9855  77.5578 14.65770464902893
COSMOS 2251 DEB         
1 34271U 93036LR  26062.04108345  .00016490  00000+0  25490-2 0  9990
2 34271  74.0191  42.9810 0012730  81.1168 348.2853 14.73227645894165
COSMOS 2251 DEB         
1 34273U 93036LT  26062.82423050  .00004911  00000+0  98228-3 0  9996
2 34273  74.0349 292.2883 0012861  30.8128  98.9186 14.62063872898063
COSMOS 2251 DEB         
1 34274U 93036LU  26063.01798060  .00006917  00000+0  12662-2 0  9990
2 34274  74.0011 271.8323 0021031  37.3424 112.8633 14.65873353898667
COSMOS 2251 DEB         
1 34276U 93036LW  26063.04836914  .00003547  00000+0  77855-3 0  9998
2 34276  74.0223 290.6568 0021023  54.1225  70.7829 14.57827232897777
COSMOS 2251 DEB         
1 34297U 93036MT  26063.16293737  .00000461  00000+0  16518-3 0  9995
2 34297  74.0482 134.7139 0017414 192.3563 194.9709 14.36709062892349
COSMOS 2251 DEB         
1 34301U 93036MX  26062.32252485  .00049793  00000+0  51818-2 0  9995
2 34301  74.0054   5.8931 0005318  52.8624 104.6298 14.89573569895989
COSMOS 2251 DEB         
1 34302U 93036MY  26062.87108993  .00003091  00000+0  95801-3 0  9992
2 34302  74.1812 335.0601 0078552 168.3022 305.0592 14.39794290888886
COSMOS 2251 DEB         
1 34303U 93036MZ  26063.19495580  .00008698  00000+0  17589-2 0  9994
2 34303  74.0049 133.4933 0137915 253.0531 136.9215 14.55574856891476
COSMOS 2251 DEB         
1 34304U 93036NA  26063.17137036  .00005452  00000+0  16307-2 0  9994
2 34304  74.0156 332.2905 0125872  90.9997  58.1787 14.38599404884677
COSMOS 2251 DEB         
1 34307U 93036ND  26063.12822131  .00000784  00000+0  72091-3 0  9995
2 34307  74.0537 182.5043 0392629 355.4615  62.4462 13.54470117839645
COSMOS 2251 DEB         
1 34313U 93036NK  26063.15963072  .00349063  00000+0  67708-2 0  9999
2 34313  73.9642 131.4189 0022652 295.5939  64.2931 15.46042893903103
COSMOS 2251 DEB         
1 34314U 93036NL  26063.07289221  .00001594  00000+0  75374-3 0  9991
2 34314  74.0061 163.2130 0105587 251.2932 177.2199 14.17649779878106
COSMOS 2251 DEB         
1 34316U 93036NN  26062.29182859  .00028729  00000+0  25536-2 0  9998
2 34316  74.0643 175.0331 0012123 269.6230  90.3566 14.95941356904122
COSMOS 2251 DEB         
1 34317U 93036NP  26062.99613834  .00000935  00000+0  80217-3 0  9995
2 34317  73.9214 261.9652 0336614 236.0862 279.4719 13.65246514847282
COSMOS 2251 DEB         
1 34321U 93036NT  26062.82196992  .00002821  00000+0  72710-3 0  9998
2 34321  74.0319   3.9697 0013758 119.2422 274.7223 14.50466753896627
COSMOS 2251 DEB         
1 34323U 93036NV  26063.13537667  .00020607  00000+0  28334-2 0  9997
2 34323  73.9540 323.0301 0055183 346.4254 170.0274 14.77202251896406
COSMOS 2251 DEB         
1 34325U 93036NX  26063.05857368  .00003975  00000+0  21207-2 0  9994
2 34325  73.8703  49.4668 0188670  50.8603  11.4442 14.04920690866579
COSMOS 2251 DEB         
1 34327U 93036NZ  26062.84425657  .00017633  00000+0  17361-2 0  9996
2 34327  73.9959   9.0667 0032426 171.4131 220.0813 14.91654605907166
COSMOS 2251 DEB         
1 34340U 93036PN  26062.36116126  .00002371  00000+0  16896-2 0  9991
2 34340  74.0782 173.2853 0288876 263.0576 153.3282 13.79868888853805
COSMOS 2251 DEB         
1 34343U 93036PR  26063.05171300  .00009975  00000+0  16200-2 0  9992
2 34343  74.0185 291.6778 0022762 188.9488 322.4984 14.71056032899253
COSMOS 2251 DEB         
1 34344U 93036PS  26063.12872058  .00003939  00000+0  17516-2 0  9994
2 34344  73.9793 324.9678 0154539 131.7881 351.5632 14.17049390872496
COSMOS 2251 DEB         
1 34346U 93036PU  26062.73619838  .00001362  00000+0  78111-3 0  9994
2 34346  73.9942 171.6599 0208764 331.7439 179.2920 14.00012990865433
COSMOS 2251 DEB         
1 34383U 93036PY  26063.14221235  .00107764  00000+0  47051-2 0  9992
2 34383  74.0255 128.3294 0013088 293.2369  89.7006 15.21526220903467
COSMOS 2251 DEB         
1 34387U 93036QC  26063.06208631  .00001290  00000+0  38157-3 0  9997
2 34387  74.0390  60.7104 0036842 141.2701 276.3693 14.44050798893555
COSMOS 2251 DEB         
1 34388U 93036QD  26063.01721090  .00003594  00000+0  93598-3 0  9991
2 34388  74.0373  70.5998 0010050 105.5477 285.8417 14.49895443893337
COSMOS 2251 DEB         
1 34389U 93036QE  26063.12152280  .00001381  00000+0  42867-3 0  9998
2 34389  74.0165  98.8826 0029838 197.9504 223.4316 14.41776742891853
COSMOS 2251 DEB         
1 34396U 93036QM  26063.17688392  .00019151  00000+0  27159-2 0  9999
2 34396  74.0301 324.6452 0004849 328.7788 187.5616 14.76956174895473
COSMOS 2251 DEB         
1 34409U 93036RA  26062.93566177  .00001409  00000+0  29818-3 0  9995
2 34409  74.0637 152.6055 0080671 207.7749 277.0801 14.58240735903760
COSMOS 2251 DEB         
1 34410U 93036RB  26063.14389632  .00109349  00000+0  37026-2 0  9991
2 34410  73.7306  86.9253 0026199 276.3717  83.4500 15.29743675910147
COSMOS 2251 DEB         
1 34412U 93036RD  26062.69505242  .00006093  00000+0  13126-2 0  9996
2 34412  73.9488 172.2209 0188570 250.0467 108.0295 14.48130676888224
COSMOS 2251 DEB         
1 34413U 93036RE  26063.15062854  .00003209  00000+0  12052-2 0  9999
2 34413  74.0294 116.9432 0089901 178.0013 213.6393 14.29764543882949
COSMOS 2251 DEB         
1 34420U 93036RM  26062.82937112  .00001408  00000+0  22904-3 0  9995
2 34420  74.0333 307.0828 0104406  46.5457  72.2873 14.68515414909601
COSMOS 2251 DEB         
1 34425U 93036RS  26062.98532406  .00003336  00000+0  65807-3 0  9995
2 34425  74.0159 258.7147 0025544   0.4775 359.6411 14.62682074899288
COSMOS 2251 DEB         
1 34430U 93036RX  26063.19344562  .00001747  00000+0  55199-3 0  9996
2 34430  74.0518 153.0476 0061085 205.5598 154.2535 14.39898966891276
COSMOS 2251 DEB         
1 34431U 93036RY  26062.28970349  .00002318  00000+0  90251-3 0  9997
2 34431  74.0760  29.3572 0067569 352.2900   7.7203 14.29074461882930
COSMOS 2251 DEB         
1 34432U 93036RZ  26063.16141943  .00001793  00000+0  10113-2 0  9990
2 34432  73.8293 318.8454 0180131  26.4435 124.8293 14.03174259868266
